STARLINK-2378
1 17916C 21021BJ  21326.18509388  .00003466  00000-0  23221-3 0  3265
2 17916  53.0539 102.8979 0001358  87.7326 331.3993 15.06401202    13
